[{"OBJECT_NAME":"SKYCRAFT-4C","OBJECT_ID":"2025-154H","EPOCH":"2026-03-09T22:57:39.203136","MEAN_MOTION":14.9463583,"ECCENTRICITY":0.00045758,"INCLINATION":97.6789,"RA_OF_ASC_NODE":135.2253,"ARG_OF_PERICENTER":219.2171,"MEAN_ANOMALY":140.8719,"EPHEMERIS_TYPE":0,"CLASSIFICATION_TYPE":"U","NORAD_CAT_ID":64896,"ELEMENT_SET_NO":999,"REV_AT_EPOCH":18432,"BSTAR":0.000346588,"MEAN_MOTION_DOT":3.699e-5,"MEAN_MOTION_DDOT":0},{"OBJECT_NAME":"THORAD AGENA D DEB","OBJECT_ID":"1969-082HJ","EPOCH":"2026-03-09T00:21:24.182208","MEAN_MOTION":14.92054324,"ECCENTRICITY":0.00151076,"INCLINATION":70.1207,"RA_OF_ASC_NODE":284.11,"ARG_OF_PERICENTER":226.5139,"MEAN_ANOMALY":133.4763,"EPHEMERIS_TYPE":0,"CLASSIFICATION_TYPE":"U","NORAD_CAT_ID":4938,"ELEMENT_SET_NO":999,"REV_AT_EPOCH":95873,"BSTAR":0.0015114541,"MEAN_MOTION_DOT":0.00015348,"MEAN_MOTION_DDOT":0}]
